{"fetched_at":"2026-03-29T02:12:04Z","count":15717,"tles":[{"name":"COSMOS 2526","line1":"1 43432U 18037A   26086.42918575 -.00000363  00000+0  00000+0 0  9999","line2":"2 43432   0.0048 211.5628 0001048 237.8588  17.9860  1.00272253 29148","category":"Other"}]}